AMC-21                  
1 33275U 08038B   18277.64329244  .00000014  00000-0  00000-0 0  9993
2 33275   0.0369  49.4649 0002237 152.1674 278.3443  1.00271489 37290
INMARSAT 4-F3           
1 33278U 08039A   18278.37209455 -.00000161  00000-0  00000+0 0  9992
2 33278   3.0228   6.2253 0002800 193.6108 210.1425  1.00271208 37079
NIMIQ 4                 
1 33373U 08044A   18278.16785478 -.00000244  00000-0  00000+0 0  9997
2 33373   0.0010 187.3526 0001982  16.4525 148.4532  1.00272111 36648
GALAXY 19 (G-19)        
1 33376U 08045A   18277.23363999 -.00000161  00000-0  00000+0 0  9996
2 33376   0.0164 186.4861 0002961  18.5536 154.9655  1.00271956 36639
VENESAT-1               
1 33414U 08055A   18278.16768117 -.00000261  00000-0  00000+0 0  9995
2 33414   0.0331  94.3366 0001933 114.6613 147.1466  1.00269988 36352
ASTRA 1M                
1 33436U 08057A   18277.78799302  .00000097  00000-0  00000-0 0  9995
2 33436   0.0513 109.6539 0005005  57.9263 148.7125  1.00270209 17530
CIEL-2                  
1 33453U 08063A   18277.64250733  .00000036  00000-0  00000-0 0  9999
2 33453   0.0138 140.3761 0003022  65.9074 269.4716  1.00272478 35950
EUTELSAT HOT BIRD 13C   
1 33459U 08065A   18277.92629111  .00000064  00000-0  00000+0 0  9998
2 33459   0.0577 333.6802 0003889 193.3264 193.0214  1.00272439 36058
EUTELSAT 48D            
1 33460U 08065B   18278.18353619  .00000100  00000-0  00000+0 0  9997
2 33460   0.0240  24.7706 0002953 180.6497 282.5546  1.00271692 35912
FENGYUN 2E              
1 33463U 08066A   18278.54694747 -.00000219  00000-0  00000+0 0  9993
2 33463   3.0894  69.0969 0005574 228.7151 359.6313  1.00263250 35895
EXPRESS-AM44            
1 33595U 09007A   18278.18673906 -.00000112  00000-0  00000+0 0  9991
2 33595   0.0321 309.5335 0000474 287.8937 192.6345  1.00272305 35367
NSS-9                   
1 33749U 09008A   18278.45594119  .00000047  00000-0  00000+0 0  9997
2 33749   0.0442  29.3277 0002147 175.5470 156.4353  1.00270311 35371
EUTELSAT 33E            
1 33750U 09008B   18277.87827264  .00000132  00000-0  00000-0 0  9990
2 33750   0.0586  38.3077 0005536 164.8019 159.6870  1.00269298 35242
TELSTAR 11N             
1 34111U 09009A   18278.31832010 -.00000275  00000-0  00000+0 0  9996
2 34111   0.0021 177.9676 0002231  10.5778 262.4629  1.00270067 35220
EUTELSAT 10A            
1 34710U 09016A   18278.18829786  .00000044  00000-0  00000+0 0  9993
2 34710   0.0668   5.1881 0005010 184.1376 262.2964  1.00270106 34775
SES-7 (PROTOSTAR 2)     
1 34941U 09027A   18277.90515352 -.00000368  00000-0  00000+0 0  9991
2 34941   0.0840  93.6974 0001841 155.2223 198.7268  1.00271867 34423
MEASAT-3A               
1 35362U 09032A   18277.70868284 -.00000265  00000-0  00000-0 0  9995
2 35362   0.0307 203.8017 0003100   8.5196 147.6784  1.00271164 34045
GOES 14                 
1 35491U 09033A   18278.25043226 -.00000119  00000-0  00000+0 0  9998
2 35491   0.3226 277.3383 0011503 305.6413 136.9480  1.00271808 33961
SIRIUS FM-5             
1 35493U 09034A   18278.44069421 -.00000225  00000-0  00000+0 0  9995
2 35493   0.0199 270.9692 0000530 117.1190  58.4903  1.00272467 33787
TERRESTAR-1             
1 35496U 09035A   18277.26184683 -.00000077  00000-0  00000+0 0  9991
2 35496   2.5910 356.2807 0002967 205.0094 154.8892  1.00271771 33954
ASIASAT 5               
1 35696U 09042A   18277.98433186 -.00000330  00000-0  00000+0 0  9997
2 35696   0.0134 206.8907 0001451 321.0259 300.5750  1.00269724 33472
JCSAT-RA (JCSAT-12)     
1 35755U 09044A   18277.49406325 -.00000052  00000-0  00000+0 0  9997
2 35755   0.0159 137.3401 0001896  79.6809 142.9850  1.00272614 33451
OPTUS D3                
1 35756U 09044B   18278.22299693 -.00000171  00000-0  00000+0 0  9990
2 35756   0.0139  58.3274 0002256 144.5877  47.2192  1.00269702 33436
PALAPA D                
1 35812U 09046A   18276.65204312 -.00000377  00000-0  00000+0 0  9992
2 35812   0.0191 105.3551 0002384 124.1157 130.5295  1.00269593 33466
NIMIQ 5                 
1 35873U 09050A   18277.51008333 -.00000279  00000-0  00000+0 0  9996
2 35873   0.0188 124.8139 0001966  76.3430 282.9401  1.00270521 33154
AMAZONAS 2              
1 35942U 09054A   18278.47545328 -.00000307  00000-0  00000+0 0  9995
2 35942   0.0361 135.3072 0004811  46.9166 302.0441  1.00272302 32985
COMSATBW-1              
1 35943U 09054B   18277.75259894  .00000002  00000-0  00000-0 0  9998
2 35943   0.0465 103.4994 0002116 108.9597 134.8799  1.00270095 33102
NSS-12                  
1 36032U 09058A   18277.80432537  .00000048  00000-0  00000+0 0  9994
2 36032   0.0400  44.9294 0002634 162.6844 152.3906  1.00271690 32735
THOR 6                  
1 36033U 09058B   18277.81165760 -.00000033  00000-0  00000+0 0  9992
2 36033   0.0177 148.5868 0001989  73.8289  82.3886  1.00271662 32764
INTELSAT 14 (IS-14)     
1 36097U 09064A   18278.08685467 -.00000297  00000-0  00000+0 0  9992
2 36097   0.0165 177.4086 0002323  21.7990 160.8016  1.00272264 32517
EUTELSAT 36B            
1 36101U 09065A   18277.81898539  .00000133  00000-0  00000+0 0  9993
2 36101   0.0666   3.9028 0004200 189.3773 150.9392  1.00269288 32603
INTELSAT 15 (IS-15)     
1 36106U 09067A   18277.82875581 -.00000208  00000-0  00000+0 0  9997
2 36106   0.0159 261.7438 0002167 309.9827 185.2406  1.00270153 32402
DIRECTV 12              
1 36131U 09075A   18278.36839032 -.00000127  00000-0  00000+0 0  9995
2 36131   0.0152 214.2861 0000241  51.6001 137.9290  1.00269516 32194
BEIDOU 3                
1 36287U 10001A   18277.91390051 -.00000305  00000-0  00000-0 0  9990
2 36287   1.4715   9.4681 0004896 169.3435 303.7663  1.00274475 31970
RADUGA-1M 2             
1 36358U 10002A   18278.47489066 -.00000208  00000-0  00000+0 0  9998
2 36358   0.0318 246.6111 0003153  13.3736  10.0917  1.00272726 31813
SDO                     
1 36395U 10005A   18277.63860431 -.00000075  00000-0  00000-0 0  9991
2 36395  29.3532 132.0176 0001926  50.3560 319.0311  1.00274389 31869
INTELSAT 16 (IS-16)     
1 36397U 10006A   18278.16299262 -.00000269  00000-0  00000+0 0  9995
2 36397   0.0040  98.4121 0001911 108.2091 149.6614  1.00272307 31548
GOES 15                 
1 36411U 10008A   18278.33796378  .00000066  00000-0  00000+0 0  9997
2 36411   0.3407 279.1936 0004439 279.9621 160.8446  1.00271436 31494
ECHOSTAR 14             
1 36499U 10010A   18278.21885348 -.00000024  00000-0  00000+0 0  9994
2 36499   0.0204 216.9416 0002756 334.3332 142.4754  1.00271345 31339
SES-1                   
1 36516U 10016A   18277.63968442 -.00000137  00000-0  00000+0 0  9997
2 36516   0.0385  77.5111 0001711 134.4191 290.6430  1.00271066 30936
ASTRA 3B                
1 36581U 10021A   18277.89910545  .00000114  00000-0  00000+0 0  9998
2 36581   0.0502 316.5385 0003019 231.6843 172.5004  1.00270237 30456
COMSATBW-2              
1 36582U 10021B   18278.18468117  .00000064  00000-0  00000+0 0  9999
2 36582   0.0195 258.9856 0001838 308.9971 245.5821  1.00267495 30791
BEIDOU 4                
1 36590U 10024A   18277.55274898 -.00000376  00000-0  00000+0 0  9999
2 36590   1.4143  25.4260 0004687 319.3607 337.9135  1.00273746 30577
BADR-5                  
1 36592U 10025A   18277.88313453  .00000121  00000-0  00000-0 0  9997
2 36592   0.0107 190.4062 0004817   0.8929 166.1390  1.00271213 25016
COMS 1                  
1 36744U 10032A   18278.48343977 -.00000368  00000-0  00000+0 0  9998
2 36744   0.0164 256.2320 0000469 323.1663  96.9191  1.00272534 30451
ARABSAT-5A              
1 36745U 10032B   18277.88313453  .00000130  00000-0  00000-0 0  9995
2 36745   0.0559 358.0926 0003400 196.6037 167.2796  1.00275974 30442
ECHOSTAR 15             
1 36792U 10034A   18277.79944458 -.00000305  00000-0  00000+0 0  9998
2 36792   0.0189 116.4174 0001889  69.3894  53.7861  1.00273967 30194
NILESAT 201             
1 36830U 10037A   18278.24109862 -.00000081  00000-0  00000+0 0  9998
2 36830   0.0413 170.6753 0004390   7.2142 275.8075  1.00270409 30090
RASCOM-QAF 1R           
1 36831U 10037B   18276.95690285 -.00000002  00000-0  00000+0 0  9992
2 36831   0.0206 252.4354 0004834 311.5009 156.0615  1.00270983 30089
CHINASAT 6A (ZX 6A)     
1 37150U 10042A   18278.68098159 -.00000378  00000-0  00000+0 0  9993
2 37150   0.0302 146.9443 0002664  59.2476 178.3409  1.00271346 29710
QZS-1 (MICHIBIKI)       
1 37158U 10045A   18276.99802091 -.00000197  00000-0  00000+0 0  9993
2 37158  41.1407 152.4787 0746950 270.3356  81.2383  1.00299145 29506
XM-5                    
1 37185U 10053A   18278.19007814 -.00000229  00000-0  00000+0 0  9992
2 37185   0.0032 105.4172 0000210 247.5075   4.1159  1.00271836 29250
BSAT-3B                 
1 37207U 10056B   18277.86328760 -.00000374  00000-0  00000-0 0  9991
2 37207   0.0502 351.0265 0002856 279.3043 163.8212  1.00270405 24029
BEIDOU 6                
1 37210U 10057A   18277.84367315 -.00000133  00000-0  00000-0 0  9996
2 37210   0.7464  38.4746 0007439 171.1419 267.6884  1.00271377 29094
SKYTERRA 1              
1 37218U 10061A   18278.18342540 -.00000142  00000-0  00000+0 0  9999
2 37218   2.6602 338.7326 0002446 192.7436 167.0473  1.00271818 29039
ZHONGXING-20A           
1 37234U 10064A   18277.90951531 -.00000361  00000-0  00000-0 0  9999
2 37234   0.0751 295.2155 0004197 338.3337 197.4782  1.00268912 28832
HYLAS 1                 
1 37237U 10065A   18277.87688911 -.00000256  00000-0  00000+0 0  9990
2 37237   0.0492 293.5458 0002050  32.9026 329.2536  1.00272433 28804
INTELSAT 17 (IS-17)     
1 37238U 10065B   18277.75312236 -.00000025  00000-0  00000-0 0  9997
2 37238   0.0201 140.6447 0002542  55.4586 154.4134  1.00270903 25225
EUTELSAT KA-SAT 9A      
1 37258U 10069A   18277.93726746  .00000039  00000-0  00000+0 0  9991
2 37258   0.0445 279.7492 0001830 273.2080 167.0561  1.00273038 28622
